MERAH PUTIH 2           
1 58995U 24035A   25336.50531006 -.00000337  00000+0  00000+0 0  9991
2 58995   0.0148 288.9607 0001750 298.7725 138.7394  1.00274182  6617
TJS-11                  
1 59020U 24037A   25335.74820227 -.00000352  00000+0  00000+0 0  9991
2 59020   4.4737 324.8017 0006081 322.8535 172.7888  1.00265915  6603
HULIANWAN GAOGUI-01 (H*)
1 59069U 24040A   25336.22428604  .00000177  00000+0  00000+0 0  9999
2 59069   0.0429 319.8203 0002778 346.5818 239.3030  1.00269269  5359
EUTELSAT 36D            
1 59346U 24059A   25336.28933692  .00000177  00000+0  00000+0 0  9991
2 59346   0.0132 300.2901 0000464 357.1340 274.0170  1.00269594  6178
PAKSAT-MM1              
1 59915U 24104A   25336.29647980  .00000175  00000+0  00000+0 0  9995
2 59915   0.0560 109.7167 0001935 156.8629 309.7118  1.00268666  5557
ASTRA 1P (SES-24)       
1 60086U 24115A   25336.22142602  .00000141  00000+0  00000+0 0  9995
2 60086   0.0606 338.1590 0005165 293.4648 258.6249  1.00269481  5222
GOES 19                 
1 60133U 24119A   25336.34544676 -.00000228  00000+0  00000+0 0  9999
2 60133   0.0186 142.0947 0001224 154.9302 183.6098  1.00271318  4990
ZHONGXING-3A            
1 60179U 24122A   25333.31282576 -.00000292  00000+0  00000+0 0  9996
2 60179   0.0367  82.9500 0001312 165.1881  34.5201  1.00269351  5302
TURKSAT 6A              
1 60233U 24127A   25336.22575936  .00000167  00000+0  00000+0 0  9990
2 60233   0.0469 200.2354 0005289  35.3674 318.9519  1.00267426  5046
HULIANWAN GAOGUI-02 (H*)
1 60327U 24135A   25332.25272194 -.00000153  00000+0  00000+0 0  9998
2 60327   0.0333  64.3235 0004015 218.6538  28.5837  1.00269734  5487
ZHONGXING-4A            
1 60606U 24151A   25336.45095955 -.00000341  00000+0  00000+0 0  9999
2 60606   1.8245 273.0037 0001759  42.6640  36.4270  1.00267485  4780
HULIANWAN GAOGUI-03 (H*)
1 61503U 24181A   25333.84811625 -.00000220  00000+0  00000+0 0  9995
2 61503   0.0213  40.1220 0000039 209.7420  47.3595  1.00272587  4827
DSN-3 (KIRAMEKI-3)      
1 61733U 24198A   25336.52405796  .00000000  00000+0  00000+0 0  9999
2 61733   0.0217 338.4605 0001479 295.2096 130.6527  1.00268246  3944
KOREASAT 6A             
1 61910U 24206A   25336.50531006  .00000000  00000+0  00000+0 0  9998
2 61910   0.0130 337.4389 0001195 256.9606 135.1066  1.00270024  3865
OPTUS-X (ADS-01)        
1 62006U 24212A   25336.31667325 -.00000262  00000+0  00000+0 0  9996
2 62006   0.0159 325.3363 0001466 283.2141  76.5008  1.00270717  3783
GSAT-N2 (GSAT-20)       
1 62028U 24214A   25336.37387361  .00000000  00000+0  00000+0 0  9996
2 62028   0.0160  54.2531 0003190 245.5455 334.3282  1.00273857  3922
SXM-9                   
1 62259U 24234A   25336.30183626 -.00000185  00000+0  00000+0 0  9990
2 62259   0.0165 313.9819 0003794 343.3339 157.6218  1.00278800  3608
TJS-12                  
1 62374U 24246A   25336.15617047 -.00000210  00000+0  00000+0 0  9992
2 62374   1.1350 288.2931 0001309 295.3519  50.3829  1.00269452  3586
NUVIEW ALPHA            
1 62455U 24252B   25336.27255964 -.00000195  00000+0  00000+0 0  9990
2 62455   0.0570  39.0088 0002009 253.3053 154.0947  1.00271277  1857
AGILA                   
1 62456U 24252C   25336.35391852 -.00000161  00000+0  00000+0 0  9990
2 62456   0.0545 124.1450 0002186 131.8650  95.0216  1.00270342  3181
NUVIEW BRAVO            
1 62457U 24252D   25336.27255964 -.00000194  00000+0  00000+0 0  9991
2 62457   0.0709 160.4440 0002122  77.7926 208.1619  1.00270911  1814
THURAYA-4               
1 62483U 25001A   25336.28377926  .00000160  00000+0  00000+0 0  9999
2 62483   0.0265  59.7419 0000128 207.5812 310.5425  1.00272246  2207
SHIJIAN-25 (SJ-25)      
1 62485U 25002A   25334.66016213 -.00000330  00000+0  00000+0 0  9991
2 62485   4.6714  62.4507 0056691 170.1539 202.3504  1.00246922  3371
TJS-14                  
1 62804U 25017A   25336.22125267  .00000136  00000+0  00000+0 0  9999
2 62804   1.2540 287.4395 0003939   6.0732 235.8488  1.00270367  3292
SPAINSAT NG I           
1 62852U 25021A   25336.28377926  .00000172  00000+0  00000+0 0  9994
2 62852   0.2628  87.2112 0003843 207.3848 277.7856  1.00323289  2017
QZS-6 (MICHIBIKI-6)     
1 62876U 25023A   25336.02154872 -.00000212  00000+0  00000+0 0  9993
2 62876   0.0128 328.8319 0002154 292.4678 268.1230  1.00270087  2982
ZHONGXING-10R           
1 63075U 25036A   25336.49593993 -.00000332  00000+0  00000+0 0  9994
2 63075   0.0360 256.3784 0004462 317.3191 146.9711  1.00271591  2971
TJS-15                  
1 63157U 25045A   25335.77202189 -.00000243  00000+0  00000+0 0  9990
2 63157   0.0967  86.2819 0005541 219.3944 137.5248  1.00267859  2771
TIANLIAN 2-04           
1 63361U 25062A   25336.37621363 -.00000115  00000+0  00000+0 0  9990
2 63361   4.8824 277.1482 0035944   1.1872   8.6144  1.00272200  2630
TJS-16                  
1 63397U 25064A   25335.75019647 -.00000084  00000+0  00000+0 0  9993
2 63397   0.5871  81.6252 0004282 220.0584 199.8288  1.00271367  2411
TJS-17                  
1 63524U 25073A   25336.57548270 -.00000049  00000+0  00000+0 0  9996
2 63524   0.5544  83.7976 0004000 196.8498 162.7400  1.00271726  2311
TIANLIAN 2-05           
1 63662U 25084A   25336.15030956  .00000145  00000+0  00000+0 0  9998
2 63662   4.9529 282.0219 0001878  30.1020 193.6742  1.00273817  2405
TJS-19                  
1 63924U 25097A   25336.57151742 -.00000258  00000+0  00000+0 0  9992
2 63924   3.6321 314.6220 0003343 301.7441 162.3226  1.00269932  2176
CHINASAT 3B             
1 64062U 25106A   25330.68612957 -.00000026  00000+0  00000+0 0  9996
2 64062   0.0322  64.7976 0009094 168.3694 247.0362  1.00270852  2039
SXM-10                  
1 64290U 25122A   25336.44280980  .00000004  00000+0  00000+0 0  9999
2 64290   0.0220  15.4654 0002588 336.4322 122.9059  1.00270357  1710
CHINASAT 9C             
1 64470U 25132A   25336.30731322 -.00000226  00000+0  00000+0 0  9993
2 64470   0.0149  22.6682 0004777 230.7678  20.8220  1.00268651  2174
MTG-S1                  
1 64723U 25143A   25336.28833308 -.00000010  00000+0  00000+0 0  9991
2 64723   0.8065 313.0919 0002787 308.3565 270.3438  1.00272329  1445
DROR 1                  
1 64784U 25148A   25336.35957353 -.00000014  00000+0  00000+0 0  9992
2 64784   0.0183 301.0527 0002442   4.9146 250.9229  1.00271144  1322
SHIYAN-29               
1 65486U 25196A   25336.07143198 -.00000266  00000+0  00000+0 0  9997
2 65486  28.6058  21.0196 0012095 185.2728 344.8891  1.00286406   902
TJS-20                  
1 66142U 25238A   25336.37274696  .00000040  00000+0  00000+0 0  9994
2 66142   5.9114 300.3594 0002121  65.7159 262.0645  1.00275048   354
CMS-03 (GSAT-7R)        
1 66311U 25249B   25336.30757322 -.00000236  00000+0  00000+0 0  9997
2 66311   0.1671 272.0660 0003994 195.6706 167.8830  1.00268468   374
